[{"OBJECT_NAME":"ONEWEB-0025","OBJECT_ID":"2020-008H","EPOCH":"2026-03-09T22:33:43.965216","MEAN_MOTION":13.10877605,"ECCENTRICITY":0.00015138,"INCLINATION":87.8781,"RA_OF_ASC_NODE":56.0018,"ARG_OF_PERICENTER":88.3912,"MEAN_ANOMALY":271.7389,"EPHEMERIS_TYPE":0,"CLASSIFICATION_TYPE":"U","NORAD_CAT_ID":45138,"ELEMENT_SET_NO":999,"REV_AT_EPOCH":29557,"BSTAR":0.0014929849,"MEAN_MOTION_DOT":5.38e-6,"MEAN_MOTION_DDOT":0},{"OBJECT_NAME":"OPS 0856 DEB","OBJECT_ID":"1966-077Q","EPOCH":"2026-03-09T22:01:59.308320","MEAN_MOTION":9.0516342,"ECCENTRICITY":0.2205492,"INCLINATION":88.0167,"RA_OF_ASC_NODE":55.8098,"ARG_OF_PERICENTER":33.0783,"MEAN_ANOMALY":339.0457,"EPHEMERIS_TYPE":0,"CLASSIFICATION_TYPE":"U","NORAD_CAT_ID":24676,"ELEMENT_SET_NO":999,"REV_AT_EPOCH":54649,"BSTAR":0.063921519,"MEAN_MOTION_DOT":3.368e-5,"MEAN_MOTION_DDOT":0}]
